NORAD_CAT_ID,OBJECT_NAME,OBJECT_TYPE,EPOCH,MEAN_MOTION,ECCENTRICITY,INCLINATION,RA_OF_ASC_NODE,ARG_OF_PERICENTER,MEAN_ANOMALY,BSTAR,MEAN_MOTION_DOT,MEAN_MOTION_DDOT,TLE_LINE0,TLE_LINE1,TLE_LINE2,SEMIMAJOR_AXIS,PERIOD,APOGEE,PERIGEE,DECAYED
55659.0,STARLINK-5477,PAYLOAD,2023-03-17 16:41:55,15.6992512,0.0003061,70.0016,71.4133,268.5245,91.5601,2.4116e-05,2.688e-05,0.0,0 STARLINK-5477,1 55659U 23021AH  23076.69577717  .00002688  00000-0  24116-4 0  9997,2 55659  70.0016  71.4133 0003061 268.5245  91.5601 15.69925120  4924,6737.248,91.724,361.176,357.051,0.0
55659.0,STARLINK-5477,PAYLOAD,2023-03-18 17:09:56,15.69938765,0.0003895,70.0023,68.5466,265.369,94.7061,4.6319e-05,5.364e-05,0.0,0 STARLINK-5477,1 55659U 23021AH  23077.71523544  .00005364  00000-0  46319-4 0  9993,2 55659  70.0023  68.5466 0003895 265.3690  94.7061 15.69938765  5084,6737.209,91.723,361.698,356.45,0.0
55659.0,STARLINK-5477,PAYLOAD,2023-03-19 05:23:57,15.69928594,0.0003388,69.9995,67.1114,256.1675,103.9143,2.9165e-05,3.296e-05,0.0,0 STARLINK-5477,1 55659U 23021AH  23078.22497424  .00003296  00000-0  29165-4 0  9999,2 55659  69.9995  67.1114 0003388 256.1675 103.9143 15.69928594  5164,6737.238,91.724,361.386,356.821,0.0
55659.0,STARLINK-5477,PAYLOAD,2023-03-19 08:27:27,15.6992992,0.000361,70.0,66.7536,254.3724,105.7073,5.9033e-05,6.893e-05,0.0,0 STARLINK-5477,1 55659U 23021AH  23078.35240708  .00006893  00000-0  59033-4 0  9997,2 55659  70.0000  66.7536 0003610 254.3724 105.7073 15.69929920  5492,6737.234,91.724,361.532,356.667,0.0
55659.0,STARLINK-5477,PAYLOAD,2023-03-19 16:06:13,15.69924003,0.0003338,70.0001,65.8598,264.2571,95.8245,2.2704e-05,2.518e-05,0.0,0 STARLINK-5477,1 55659U 23021AH  23078.67099340  .00002518  00000-0  22704-4 0  9991,2 55659  70.0001  65.8598 0003338 264.2571  95.8245 15.69924003  5541,6737.251,91.724,361.365,356.868,0.0
55659.0,STARLINK-5477,PAYLOAD,2023-03-20 05:51:59,15.69935966,0.0003155,70.0014,64.2479,259.6157,100.4683,3.663e-05,4.196e-05,0.0,0 STARLINK-5477,1 55659U 23021AH  23079.24444056  .00004196  00000-0  36630-4 0  9990,2 55659  70.0014  64.2479 0003155 259.6157 100.4683 15.69935966  5326,6737.217,91.723,361.208,356.957,0.0
55659.0,STARLINK-5477,PAYLOAD,2023-03-20 10:27:15,15.69924105,0.0003316,69.9998,63.7085,265.7579,94.3237,2.1791e-05,2.408e-05,0.0,0 STARLINK-5477,1 55659U 23021AH  23079.43559530  .00002408  00000-0  21791-4 0  9991,2 55659  69.9998  63.7085 0003316 265.7579  94.3237 15.69924105  5358,6737.251,91.724,361.35,356.882,0.0
55659.0,STARLINK-5477,PAYLOAD,2023-03-21 10:55:17,15.69909548,0.0003042,70.0011,60.8438,270.8041,89.2806,-3.1536e-05,-4e-05,0.0,0 STARLINK-5477,1 55659U 23021AH  23080.45506801 -.00004000  00000-0 -31536-4 0  9998,2 55659  70.0011  60.8438 0003042 270.8041  89.2806 15.69909548  5511,6737.293,91.725,361.207,357.108,0.0
55659.0,STARLINK-5477,PAYLOAD,2023-03-22 02:12:48,15.69926588,0.0003172,70.0018,59.0517,272.8495,87.2338,2.5416e-05,2.845e-05,0.0,0 STARLINK-5477,1 55659U 23021AH  23081.09223128  .00002845  00000-0  25416-4 0  9990,2 55659  70.0018  59.0517 0003172 272.8495  87.2338 15.69926588  5617,6737.244,91.724,361.246,356.972,0.0
55659.0,STARLINK-5477,PAYLOAD,2023-03-22 08:19:49,15.69914112,0.0002778,70.0018,58.3364,269.4224,90.6653,-1.4366e-05,-1.938e-05,0.0,0 STARLINK-5477,1 55659U 23021AH  23081.34710269 -.00001938  00000-0 -14366-4 0  9991,2 55659  70.0018  58.3364 0002778 269.4224  90.6653 15.69914112  5654,6737.28,91.725,361.016,357.273,0.0
55659.0,STARLINK-5477,PAYLOAD,2023-03-22 15:58:34,15.69927665,0.0002843,70.0014,57.4384,265.9707,94.1164,2.5902e-05,2.903e-05,0.0,0 STARLINK-5477,1 55659U 23021AH  23081.66568198  .00002903  00000-0  25902-4 0  9997,2 55659  70.0014  57.4384 0002843 265.9707  94.1164 15.69927665  5701,6737.241,91.724,361.021,357.191,0.0
55659.0,STARLINK-5477,PAYLOAD,2023-03-23 07:16:06,15.6992826,0.0003209,70.0027,55.6488,268.9105,91.1723,1.5229e-05,1.619e-05,0.0,0 STARLINK-5477,1 55659U 23021AH  23082.30284778  .00001619  00000-0  15229-4 0  9992,2 55659  70.0027  55.6488 0003209 268.9105  91.1723 15.69928260  6118,6737.239,91.724,361.266,356.942,0.0
55659.0,STARLINK-5477,PAYLOAD,2023-03-23 22:33:37,15.69936829,0.0003435,70.0015,53.858,272.2514,87.8288,4.774e-05,5.534e-05,0.0,0 STARLINK-5477,1 55659U 23021AH  23082.94001174  .00005534  00000-0  47740-4 0  9992,2 55659  70.0015  53.8580 0003435 272.2514  87.8288 15.69936829  6210,6737.215,91.723,361.394,356.765,0.0
55659.0,STARLINK-5477,PAYLOAD,2023-03-24 04:40:36,15.69974061,0.0003341,70.0028,53.1429,267.0861,92.9953,0.00020863,0.00025,0.0,0 STARLINK-5477,1 55659U 23021AH  23083.19486983  .00025000  00000-0  20863-3 0  9991,2 55659  70.0028  53.1429 0003341 267.0861  92.9953 15.69974061  5947,6737.108,91.721,361.224,356.722,0.0
55659.0,STARLINK-5477,PAYLOAD,2023-03-24 07:44:07,15.69925978,0.0003013,70.0028,52.7844,281.033,79.0527,2.2914e-06,6.3e-07,0.0,0 STARLINK-5477,1 55659U 23021AH  23083.32231354  .00000063  00000-0  22914-5 0  9999,2 55659  70.0028  52.7844 0003013 281.0330  79.0527 15.69925978  5964,6737.246,91.724,361.141,357.081,0.0
55659.0,STARLINK-5477,PAYLOAD,2023-03-24 15:22:53,15.6991375,0.0003172,70.003,51.887,271.7948,88.2885,-5.6253e-05,-6.968e-05,0.0,0 STARLINK-5477,1 55659U 23021AH  23083.64089759 -.00006968  00000-0 -56253-4 0  9998,2 55659  70.0030  51.8870 0003172 271.7948  88.2885 15.69913750  6014,6737.281,91.725,361.283,357.009,0.0
55659.0,STARLINK-5477,PAYLOAD,2023-03-25 00:33:25,15.69865841,0.000339,70.0033,50.8127,268.0163,92.0644,-0.00018211,-0.00022,0.0,0 STARLINK-5477,1 55659U 23021AH  23084.02321673 -.00022000  00000-0 -18211-3 0  9991,2 55659  70.0033  50.8127 0003390 268.0163  92.0644 15.69865841  6070,6737.418,91.728,361.567,356.999,0.0
55659.0,STARLINK-5477,PAYLOAD,2023-03-25 08:12:11,15.69884228,0.0002964,70.0032,49.9184,237.9315,122.1594,-9.1043e-05,-0.00011126,0.0,0 STARLINK-5477,1 55659U 23021AH  23084.34180389 -.00011126  00000-0 -91043-4 0  9995,2 55659  70.0032  49.9184 0002964 237.9315 122.1594 15.69884228  6126,6737.365,91.727,361.227,357.233,0.0
55659.0,STARLINK-5477,PAYLOAD,2023-03-26 04:04:57,15.69934914,0.0003328,70.0026,47.5895,263.374,96.7076,0.00010616,0.00012577,0.0,0 STARLINK-5477,1 55659U 23021AH  23085.17010541  .00012577  00000-0  10616-3 0  9994,2 55659  70.0026  47.5895 0003328 263.3740  96.7076 15.69934914  6255,6737.22,91.724,361.327,356.843,0.0
55659.0,STARLINK-5477,PAYLOAD,2023-03-26 22:25:58,15.6993044,0.0003162,70.0029,45.4379,269.9856,90.0978,3.1537e-05,3.582e-05,0.0,0 STARLINK-5477,1 55659U 23021AH  23085.93470750  .00003582  00000-0  31537-4 0  9992,2 55659  70.0029  45.4379 0003162 269.9856  90.0978 15.69930440  6683,6737.233,91.724,361.228,356.968,0.0
55659.0,STARLINK-5477,PAYLOAD,2023-03-26 23:57:43,15.69931794,0.0003166,70.0034,45.2586,269.0801,91.0031,2.8486e-05,3.215e-05,0.0,0 STARLINK-5477,1 55659U 23021AH  23085.99842323  .00003215  00000-0  28486-4 0  9999,2 55659  70.0034  45.2586 0003166 269.0801  91.0031 15.69931794  6383,6737.229,91.724,361.227,356.961,0.0
55659.0,STARLINK-5477,PAYLOAD,2023-03-27 06:04:43,15.69940533,0.0002918,70.003,44.5418,267.435,92.6512,2.9571e-05,3.347e-05,0.0,0 STARLINK-5477,1 55659U 23021AH  23086.25328523  .00003347  00000-0  29571-4 0  9992,2 55659  70.0030  44.5418 0002918 267.4350  92.6512 15.69940533  6731,6737.204,91.723,361.035,357.103,0.0
55659.0,STARLINK-5477,PAYLOAD,2023-03-28 06:32:45,15.69932876,0.0003214,70.002,41.6775,262.4477,97.6353,3.9104e-05,4.493e-05,0.0,0 STARLINK-5477,1 55659U 23021AH  23087.27275314  .00004493  00000-0  39104-4 0  9990,2 55659  70.0020  41.6775 0003214 262.4477  97.6353 15.69932876  6581,6737.226,91.724,361.256,356.926,0.0
55659.0,STARLINK-5477,PAYLOAD,2023-03-28 21:50:16,15.69935435,0.0003281,70.0021,39.8863,263.8772,96.205,4.6725e-05,5.412e-05,0.0,0 STARLINK-5477,1 55659U 23021AH  23087.90991860  .00005412  00000-0  46725-4 0  9990,2 55659  70.0021  39.8863 0003281 263.8772  96.2050 15.69935435  6994,6737.219,91.724,361.294,356.873,0.0
55659.0,STARLINK-5477,PAYLOAD,2023-03-29 07:00:47,15.69932532,0.0003678,70.003,38.8113,267.0627,93.0148,6.1423e-05,7.182e-05,0.0,0 STARLINK-5477,1 55659U 23021AH  23088.29221814  .00007182  00000-0  61423-4 0  9996,2 55659  70.0030  38.8113 0003678 267.0627  93.0148 15.69932532  6747,6737.227,91.724,361.57,356.614,0.0
55659.0,STARLINK-5477,PAYLOAD,2023-03-30 05:57:04,15.69930157,0.0003229,70.0019,36.1236,264.4712,95.6116,3.204e-05,3.642e-05,0.0,0 STARLINK-5477,1 55659U 23021AH  23089.24797142  .00003642  00000-0  32040-4 0  9994,2 55659  70.0019  36.1236 0003229 264.4712  95.6116 15.69930157  6899,6737.234,91.724,361.274,356.923,0.0
55659.0,STARLINK-5477,PAYLOAD,2023-03-30 22:46:21,15.69927551,0.0003221,70.001,34.1516,267.9473,92.1353,2.4476e-05,2.732e-05,0.0,0 STARLINK-5477,1 55659U 23021AH  23089.94885722  .00002732  00000-0  24476-4 0  9996,2 55659  70.0010  34.1516 0003221 267.9473  92.1353 15.69927551  7006,6737.241,91.724,361.276,356.936,0.0
55659.0,STARLINK-5477,PAYLOAD,2023-03-31 04:53:21,15.69943517,0.0002735,70.0025,33.4368,255.3113,104.7779,7.047e-05,8.275e-05,0.0,0 STARLINK-5477,1 55659U 23021AH  23090.20371900  .00008275  00000-0  70470-4 0  9998,2 55659  70.0025  33.4368 0002735 255.3113 104.7779 15.69943517  7046,6737.196,91.723,360.903,357.218,0.0
55659.0,STARLINK-5477,PAYLOAD,2023-03-31 20:10:53,15.69911474,0.0003598,70.001,31.6412,265.9838,94.0946,-2.2914e-05,-2.966e-05,0.0,0 STARLINK-5477,1 55659U 23021AH  23090.84089556 -.00002966  00000-0 -22914-4 0  9994,2 55659  70.0010  31.6412 0003598 265.9838  94.0946 15.69911474  7144,6737.287,91.725,361.576,356.728,0.0
55659.0,STARLINK-5477,PAYLOAD,2023-04-01 05:21:23,15.69931687,0.0003267,70.002,30.5687,263.8538,96.2286,4.8769e-05,5.657e-05,0.0,0 STARLINK-5477,1 55659U 23021AH  23091.22319135  .00005657  00000-0  48769-4 0  9990,2 55659  70.0020  30.5687 0003267 263.8538  96.2286 15.69931687  7200,6737.229,91.724,361.295,356.893,0.0
